STARLINK-30575          
1 58052U 23158B   26067.66667824  .00006698  00000+0  25285-3 0  9998
2 58052  43.0037  33.1816 0001738 277.6806 288.0882 15.27562199  5745
FLOCK 4G-27             
1 62641U 25009AJ  26068.75406453  .00012587  00000+0  47455-3 0  9991
2 62641  97.3976 150.8631 0000756 322.4974  37.6212 15.27199247 63710
